*******************************************************************************
 Revised: Mar 12, 2021            Adrastea / (Jupiter)                      515

 SATELLITE PHYSICAL PROPERTIES:
  Radius (km)            =  8.2 +/- 2         Density (g cm^-3) =              
  GM (km^3/s^2)          =  0.0001 +/- 0.0006 Geometric Albedo  = 0.1 +/- 0.045

 SATELLITE ORBIT (at J2000.0 epoch, 2000-Jan-1.5):
  Semi-major axis, a (km) ~ 130,000           Orbital period    = 0.30240 d
  Eccentricity, e         ~  0.007            Rotational period = Synchronous 
  Inclination, i  (deg)   ~  0.007
*******************************************************************************


*******************************************************************************
Ephemeris / WWW_USER Sun Jun 19 04:40:59 2022 Pasadena, USA      / Horizons    
*******************************************************************************
Target body name: Adrastea (515)                  {source: jup365_merged}
Center body name: Earth-Moon Barycenter (3)       {source: jup365_merged}
Center-site name: BODYCENTRIC
*******************************************************************************
Start time      : A.D. 2022-Jun-16 00:00:00.0000 UT      
Stop  time      : A.D. 2022-Jul-16 00:00:00.0000 UT      
Step-size       : 1440 minutes
*******************************************************************************
Target pole/equ : IAU_ADRASTEA                    {West-longitude positive}
Target radii    : 10.0 x 8.0 x 7.0 km             {Equator, meridian, pole}    
Center geodetic : 0.00000000,0.00000000,0.0000000 {E-lon(deg),Lat(deg),Alt(km)}
Center cylindric: 0.00000000,0.00000000,0.0000000 {E-lon(deg),Dxy(km),Dz(km)}
Center pole/equ : ICRF
Center radii    : (undefined)                                                  
Target primary  : Jupiter
Vis. interferer : None
Rel. light bend : Sun, EARTH                      {source: DE441}
Rel. lght bnd GM: 1.3271E+11, 3.9860E+05 km^3/s^2                              
Atmos refraction: NO (AIRLESS)
RA format       : HMS
Time format     : CAL 
EOP file        : eop.220617.p220909                                           
EOP coverage    : DATA-BASED 1962-JAN-20 TO 2022-JUN-17. PREDICTS-> 2022-SEP-08
Units conversion: 1 au= 149597870.700 km, c= 299792.458 km/s, 1 day= 86400.0 s 
Table cut-offs 1: Elevation (-90.0deg=NO ),Airmass     n.a.    , Daylight (NO )
Table cut-offs 2: Solar elongation (  0.0,180.0=NO ),Local Hour Angle( 0.0=NO )
Table cut-offs 3: RA/DEC angular rate (     0.0=NO )                           
******************************************************************************************************************************************************************************
 Date__(UT)__HR:MN     R.A._____(ICRF)_____DEC    APmag   S-brt             delta      deldot     S-O-T /r     S-T-O  Sky_motion  Sky_mot_PA  RelVel-ANG  Lun_Sky_Brt  sky_SNR
******************************************************************************************************************************************************************************
$$SOE
 2022-Jun-16 00:00     00 22 26.15 +01 05 25.0   19.399   7.807  5.05760622324135 -57.5499467   78.9741 /T   11.5858   0.2790167   73.254782   -73.49023         n.a.     n.a.
 2022-Jun-17 00:00     00 22 50.49 +01 07 42.5   19.392   7.807  5.04186514291397  -5.6121771   79.8205 /T   11.6184   0.0813106   239.22959   -48.55536         n.a.     n.a.
 2022-Jun-18 00:00     00 23 18.67 +01 10 31.1   19.387   7.807  5.02816210664400 -19.8574089   80.6487 /T   11.6554   0.8078050   65.916490   -22.02135         n.a.     n.a.
 2022-Jun-19 00:00     00 23 47.85 +01 13 22.2   19.379   7.806  5.01172285210013 -54.8521087   81.4726 /T   11.6772   0.0844129   92.668670   -84.67377         n.a.     n.a.
 2022-Jun-20 00:00     00 24 10.22 +01 15 27.4   19.372   7.806  4.99642238526834   1.3006206   82.3274 /T   11.7049   0.0453935   67.769761   25.379235         n.a.     n.a.
 2022-Jun-21 00:00     00 24 38.05 +01 18 13.7   19.367   7.807  4.98238309063361 -31.4520938   83.1567 /T   11.7327   0.7986018   66.457149   -33.18248         n.a.     n.a.
 2022-Jun-22 00:00     00 25 04.38 +01 20 44.5   19.359   7.806  4.96559140371523 -48.3334644   83.9933 /T   11.7464   0.1074616   225.72114   -82.39867         n.a.     n.a.
 2022-Jun-23 00:00     00 25 25.24 +01 22 40.5   19.353   7.806  4.95076557349701   4.5890130   84.8546 /T   11.7687   0.2063414   64.552077   20.386156         n.a.     n.a.
 2022-Jun-24 00:00     00 25 52.39 +01 25 21.9   19.346   7.806  4.93625293681711 -42.3484786   85.6867 /T   11.7867   0.7200505   67.214617   -44.58654         n.a.     n.a.
 2022-Jun-25 00:00     00 26 15.61 +01 27 31.2   19.338   7.806  4.91933497690704 -38.8613478   86.5372 /T   11.7929   0.2326397   237.77254   -70.40542         n.a.     n.a.
 2022-Jun-26 00:00     00 26 35.40 +01 29 21.2   19.332   7.806  4.90494721254328   3.7947727   87.4029 /T   11.8090   0.3788415   64.598426   9.5890146         n.a.     n.a.
 2022-Jun-27 00:00     00 27 01.42 +01 31 54.3   19.326   7.806  4.88987737384058 -51.1156571   88.2399 /T   11.8166   0.5787063   68.405182   -56.20991         n.a.     n.a.
 2022-Jun-28 00:00     00 27 21.48 +01 33 42.1   19.318   7.805  4.87306729487612 -27.7012160   89.1047 /T   11.8159   0.2981873   240.90522   -57.62214         n.a.     n.a.
 2022-Jun-29 00:00     00 27 40.56 +01 35 28.5   19.312   7.806  4.85901254868778  -1.0044623   89.9732 /T   11.8248   0.5371952   64.925320   -1.823406         n.a.     n.a.
 2022-Jun-30 00:00     00 28 04.90 +01 37 49.3   19.305   7.806  4.84337071147848 -56.5849243   90.8178 /T   11.8219   0.3896984   70.732572   -68.04051         n.a.     n.a.
 2022-Jul-01 00:00     00 28 21.91 +01 39 16.9   19.297   7.805  4.82688627556752 -16.3358095   91.6963 /T   11.8147   0.2940438   242.55044   -43.59644         n.a.     n.a.
 2022-Jul-02 00:00     00 28 40.51 +01 41 01.1   19.291   7.806  4.81301698833648  -9.1801946   92.5668 /T   11.8155   0.6571207   65.353217   -13.50236         n.a.     n.a.
 2022-Jul-03 00:00     00 29 02.58 +01 43 05.6   19.283   7.805  4.79686680555298 -58.0062976   93.4217 /T   11.8020   0.1762554   78.342397   -80.00777         n.a.     n.a.
 2022-Jul-04 00:00     00 29 16.86 +01 44 15.6   19.276   7.805  4.78088464907207  -6.2850977   94.3124 /T   11.7885   0.2214562   243.89543   -26.15583         n.a.     n.a.
 2022-Jul-05 00:00     00 29 35.04 +01 45 57.6   19.270   7.806  4.76702854822826 -19.6470583   95.1847 /T   11.7801   0.7188670   65.874645   -25.37453         n.a.     n.a.
 2022-Jul-06 00:00     00 29 54.31 +01 47 42.2   19.262   7.805  4.75050212017080 -55.1738271   96.0525 /T   11.7564   0.0599550   204.17929   -86.42940         n.a.     n.a.
 2022-Jul-07 00:00     00 30 06.27 +01 48 37.9   19.255   7.805  4.73513696470593   1.1094379   96.9536 /T   11.7365   0.0914849   246.52823   11.961776         n.a.     n.a.
 2022-Jul-08 00:00     00 30 23.88 +01 50 16.4   19.249   7.806  4.72112619282995 -30.9930010   97.8284 /T   11.7180   0.7097800   66.540345   -37.42084         n.a.     n.a.
 2022-Jul-09 00:00     00 30 39.93 +01 51 38.6   19.241   7.805  4.70441884935410 -48.4327849   98.7110 /T   11.6846   0.2388412   236.69525   -74.33496         n.a.     n.a.
 2022-Jul-10 00:00     00 30 50.07 +01 52 23.6   19.234   7.805  4.68971501375704   4.8712438   99.6204 /T   11.6580   0.0771910   60.096387   48.066995         n.a.     n.a.
 2022-Jul-11 00:00     00 31 06.80 +01 53 56.0   19.228   7.806  4.67541411649040 -41.6801682  100.4993 /T   11.6286   0.6266875   67.484197   -49.64338         n.a.     n.a.
 2022-Jul-12 00:00     00 31 19.37 +01 54 54.5   19.219   7.805  4.65875665072342 -38.6556505  101.3979 /T   11.5861   0.3786908   240.89783   -61.11542         n.a.     n.a.
 2022-Jul-13 00:00     00 31 28.18 +01 55 32.2   19.213   7.805  4.64467986073824   4.5001532  102.3133 /T   11.5522   0.2586909   63.319075   17.216320         n.a.     n.a.
 2022-Jul-14 00:00     00 31 43.54 +01 56 55.0   19.206   7.806  4.63000619020794 -50.2390862  103.1987 /T   11.5114   0.4762508   69.090690   -62.05162         n.a.     n.a.
 2022-Jul-15 00:00     00 31 52.58 +01 57 29.9   19.198   7.805  4.61364000219364 -27.1182895  104.1136 /T   11.4603   0.4526502   242.73654   -47.05083         n.a.     n.a.
 2022-Jul-16 00:00     00 32 00.46 +01 58 02.9   19.192   7.806  4.60009378104347   0.0711608  105.0332 /T   11.4185   0.4260796   64.292374   0.1735602         n.a.     n.a.
